SL-12 R/B(2)            
1 15772U 85042D   26192.00082677 -.00000013  00000+0  15681-4 0  9990
2 15772  71.1063 187.2032 0037233 292.3342  87.2598 14.22010413131921
SL-14 R/B               
1 15945U 85069B   26192.19987406  .00000234  00000+0  23513-4 0  9992
2 15945  82.5266 268.7838 0019805 139.7516 220.5172 14.86533499191183
SL-16 R/B               
1 16182U 85097B   26192.49521661 -.00000106  00000+0 -29048-4 0  9996
2 16182  71.0010 239.9028 0005489  59.0132  41.3676 14.16612227104765
SL-14 R/B               
1 16496U 86006B   26192.34440174  .00000270  00000+0  25885-4 0  9993
2 16496  82.5281 143.3807 0075182 221.7911 137.7551 14.86966515167583
COSMOS 1743             
1 16719U 86034A   26192.26861602  .00038879  00000+0  33203-3 0  9994
2 16719  82.5278 303.0853 0005259 189.0499 171.0669 15.69301382199569
SL-14 R/B               
1 16792U 86046B   26192.46660507  .00000257  00000+0  26745-4 0  9994
2 16792  82.4836 323.2331 0023197 175.1669 184.9776 14.85688858144789
SL-14 R/B               
1 16882U 86055B   26192.52396902  .00000244  00000+0  25283-4 0  9998
2 16882  82.5199  10.2483 0017338 283.5916 130.1672 14.85738807137759
AJISAI (EGS)            
1 16908U 86061A   26192.45144676 -.00000101  00000+0 -25178-4 0  9992
2 16908  50.0103  72.7834 0011101 242.3379 110.8823 12.44516679483407
SL-14 R/B               
1 17567U 87024B   26192.38768560  .00000259  00000+0  26658-4 0  9996
2 17567  82.5294 336.5023 0017499 206.7567 153.2749 14.86229991106507
COSMOS 1833             
1 17589U 87027A   26191.82270756  .00000126  00000+0  92790-4 0  9999
2 17589  70.9211  67.1908 0023938  15.7836 344.4026 14.13065191 27719
SL-16 R/B               
1 17590U 87027B   26192.49705249 -.00000141  00000+0 -45926-4 0  9993
2 17590  71.0029  15.5995 0007136 285.8291  74.2046 14.17173234 32886
SL-14 R/B               
1 17912U 87038B   26192.44635367  .00000255  00000+0  26589-4 0  9999
2 17912  82.5009 180.2209 0020722 113.7273 246.6120 14.85459955 97603
COSMOS 1844             
1 17973U 87041A   26192.29122265  .00000196  00000+0  12690-3 0  9992
2 17973  70.8995 133.4639 0031581 200.8116 159.1722 14.14579051 21065
SL-14 R/B               
1 18153U 87055B   26192.53609183  .00000214  00000+0  21760-4 0  9994
2 18153  82.4974 232.2753 0019677 327.8225  32.1789 14.85725713 88321
COSMOS 1867             
1 18187U 87060A   26192.51466949 -.00000082  00000+0  68654-5 0  9994
2 18187  65.0120 319.9272 0017065 282.0333  77.8839 14.31518280 37661
SL-14 R/B               
1 18749U 88001B   26192.20307574  .00000212  00000+0  21585-4 0  9993
2 18749  82.5125  79.1793 0017796 184.9960 175.1082 14.85625263 60368
COSMOS 1933             
1 18958U 88020A   26192.34864117  .00002207  00000+0  10437-3 0  9991
2 18958  82.5138 128.5070 0005735 117.4321 242.7497 15.18874588 68994
SL-3 R/B                
1 19046U 88032B   26192.52017892  .00002350  00000+0  10822-3 0  9990
2 19046  97.5267 175.5405 0026160 158.0602 202.1760 15.21014468 70920
SL-16 R/B               
1 19120U 88039B   26192.35981286 -.00000184  00000+0 -64358-4 0  9997
2 19120  71.0136 167.0445 0020801 155.6640 204.5472 14.19631645975935
COSMOS 1953             
1 19210U 88050A   26192.01894975  .00004525  00000+0  15296-3 0  9998
2 19210  82.5064  33.9945 0011831  53.3984 306.8343 15.30299824 56639
SL-8 R/B                
1 19257U 88053B   26192.55588066  .00000118  00000+0  46647-4 0  9991
2 19257  74.0460 244.1380 0019612  30.8300  76.8760 14.38977043994419
COSMOS 1975             
1 19573U 88093A   26192.49196667  .00003745  00000+0  12899-3 0  9991
2 19573  82.5191 353.2464 0012569  93.8606 266.4071 15.29633781 38322
SL-14 R/B               
1 19574U 88093B   26192.24261394  .00000211  00000+0  21401-4 0  9990
2 19574  82.5316 286.0623 0020361 353.6820  36.0224 14.85758633 19365
SL-16 R/B               
1 19650U 88102B   26192.51534529 -.00000243  00000+0 -98757-4 0  9994
2 19650  70.9984 250.9504 0014513 191.3358 168.7440 14.16167618944423
INTERCOSMOS 24          
1 20261U 89080A   26192.47745161  .00000268  00000+0  74348-4 0  9996
2 20261  82.6047  23.8351 1187400   5.5744 355.7294 12.59690692682389
SL-14 R/B               
1 20262U 89080C   26192.16231036  .00000050  00000+0  14486-4 0  9990
2 20262  82.5938  93.9038 1228556 262.5206  83.4990 12.50577970675580
DELTA 1 R/B             
1 20323U 89089B   26192.49759753  .00000161  00000+0  48239-4 0  9990
2 20323  97.0634  20.1654 0070642  91.4050 269.5242 14.50746420913687
ARIANE 40 R/B           
1 20443U 90005H   26192.08756297  .00000110  00000+0  48335-4 0  9999
2 20443  98.2947 248.9590 0009980 186.0758 174.0311 14.39939548910565
DELTA 2 R/B(1)          
1 20453U 90008B   26192.02366380  .00079035  00000+0  49420-3 0  9994
2 20453  35.6001  75.7228 0060888 336.6786  23.1198 15.72953494945451
COSMOS 2058             
1 20465U 90010A   26191.76019146  .00001511  00000+0  85929-4 0  9994
2 20465  82.4673 286.1070 0007801 268.7589  91.2748 15.12143203960833
SL-14 R/B               
1 20466U 90010B   26192.31236420  .00000223  00000+0  24146-4 0  9996
2 20466  82.5033 151.2884 0018240 251.0621 108.8617 14.83661685946819
